{
  "type": "FeatureCollection",
  "features": [
    {
      "type": "Feature",
      "properties": {
        "norad_id": 40362,
        "name": "YAOGAN-26",
        "group": "resource",
        "lat": -39.434074465515394,
        "lon": -7.496711920559762,
        "alt_km": 453.57621815467337,
        "timestamp": "2025-12-11T22:43:46.928709+00:00",
        "meta_object_name": "YAOGAN-26",
        "meta_object_id": "2014-088A",
        "meta_epoch": "2025-12-11T15:06:03.476160",
        "meta_mean_motion": 15.39229633,
        "meta_eccentricity": 0.00064207,
        "meta_inclination": 97.0645,
        "meta_ra_of_asc_node": 346.3429,
        "meta_arg_of_pericenter": 33.6196,
        "meta_mean_anomaly": 326.5456,
        "meta_ephemeris_type": 0,
        "meta_classification_type": "U",
        "meta_norad_cat_id": 40362,
        "meta_element_set_no": 999,
        "meta_rev_at_epoch": 60877,
        "meta_bstar": 0.0005804397,
        "meta_mean_motion_dot": 0.00022555,
        "meta_mean_motion_ddot": 0,
        "tle_line1": "1 40362U 14088A   25345.62920690  .00022555  00000+0  58044-3 0  9991",
        "tle_line2": "2 40362  97.0645 346.3429 0006420  33.6196 326.5456 15.39229633608771"
      },
      "geometry": {
        "type": "Point",
        "coordinates": [
          -7.496711920559762,
          -39.434074465515394
        ]
      }
    },
    {
      "type": "Feature",
      "properties": {
        "norad_id": 40376,
        "name": "SMAP",
        "group": "resource",
        "lat": 64.22038391280049,
        "lon": -26.53193953635768,
        "alt_km": 675.3491395363217,
        "timestamp": "2025-12-11T22:43:46.928719+00:00",
        "meta_object_name": "SMAP",
        "meta_object_id": "2015-003A",
        "meta_epoch": "2025-12-11T14:13:35.109408",
        "meta_mean_motion": 14.63342734,
        "meta_eccentricity": 0.00012009,
        "meta_inclination": 98.1292,
        "meta_ra_of_asc_node": 350.3331,
        "meta_arg_of_pericenter": 89.6313,
        "meta_mean_anomaly": 270.5027,
        "meta_ephemeris_type": 0,
        "meta_classification_type": "U",
        "meta_norad_cat_id": 40376,
        "meta_element_set_no": 999,
        "meta_rev_at_epoch": 58018,
        "meta_bstar": 0.00018452894,
        "meta_mean_motion_dot": 9.06e-06,
        "meta_mean_motion_ddot": 0,
        "tle_line1": "1 40376U 15003A   25345.59276747  .00000906  00000+0  18453-3 0  9993",
        "tle_line2": "2 40376  98.1292 350.3331 0001200  89.6313 270.5027 14.63342734580186"
      },
      "geometry": {
        "type": "Point",
        "coordinates": [
          -26.53193953635768,
          64.22038391280049
        ]
      }
    },
    {
      "type": "Feature",
      "properties": {
        "norad_id": 40536,
        "name": "KOMPSAT-3A",
        "group": "resource",
        "lat": -66.49538818822636,
        "lon": 122.17553799985873,
        "alt_km": 443.4975315195388,
        "timestamp": "2025-12-11T22:43:46.928729+00:00",
        "meta_object_name": "KOMPSAT-3A",
        "meta_object_id": "2015-014A",
        "meta_epoch": "2025-12-11T13:52:58.236384",
        "meta_mean_motion": 15.43875681,
        "meta_eccentricity": 0.00047779,
        "meta_inclination": 97.6791,
        "meta_ra_of_asc_node": 319.8608,
        "meta_arg_of_pericenter": 129.4016,
        "meta_mean_anomaly": 230.7655,
        "meta_ephemeris_type": 0,
        "meta_classification_type": "U",
        "meta_norad_cat_id": 40536,
        "meta_element_set_no": 999,
        "meta_rev_at_epoch": 59277,
        "meta_bstar": 0.00056497126,
        "meta_mean_motion_dot": 0.0002561,
        "meta_mean_motion_ddot": 0,
        "tle_line1": "1 40536U 15014A   25345.57845181  .00025610  00000+0  56497-3 0  9994",
        "tle_line2": "2 40536  97.6791 319.8608 0004777 129.4016 230.7655 15.43875681592778"
      },
      "geometry": {
        "type": "Point",
        "coordinates": [
          122.17553799985873,
          -66.49538818822636
        ]
      }
    },
    {
      "type": "Feature",
      "properties": {
        "norad_id": 40697,
        "name": "SENTINEL-2A",
        "group": "resource",
        "lat": 26.101997759204025,
        "lon": 54.2541860844729,
        "alt_km": 787.66247401892,
        "timestamp": "2025-12-11T22:43:46.928739+00:00",
        "meta_object_name": "SENTINEL-2A",
        "meta_object_id": "2015-028A",
        "meta_epoch": "2025-12-11T14:12:53.958816",
        "meta_mean_motion": 14.30813456,
        "meta_eccentricity": 0.00011011,
        "meta_inclination": 98.5686,
        "meta_ra_of_asc_node": 58.1408,
        "meta_arg_of_pericenter": 87.3128,
        "meta_mean_anomaly": 272.818,
        "meta_ephemeris_type": 0,
        "meta_classification_type": "U",
        "meta_norad_cat_id": 40697,
        "meta_element_set_no": 999,
        "meta_rev_at_epoch": 54690,
        "meta_bstar": 0.00024501262,
        "meta_mean_motion_dot": 5.99e-06,
        "meta_mean_motion_ddot": 0,
        "tle_line1": "1 40697U 15028A   25345.59229119  .00000599  00000+0  24501-3 0  9996",
        "tle_line2": "2 40697  98.5686  58.1408 0001101  87.3128 272.8180 14.30813456546905"
      },
      "geometry": {
        "type": "Point",
        "coordinates": [
          54.2541860844729,
          26.101997759204025
        ]
      }
    },
    {
      "type": "Feature",
      "properties": {
        "norad_id": 40701,
        "name": "GAOFEN-8",
        "group": "resource",
        "lat": 52.85137826449461,
        "lon": -5.675744540862548,
        "alt_km": 437.87099072424826,
        "timestamp": "2025-12-11T22:43:46.928750+00:00",
        "meta_object_name": "GAOFEN-8",
        "meta_object_id": "2015-030A",
        "meta_epoch": "2025-12-11T14:22:39.601344",
        "meta_mean_motion": 15.38499279,
        "meta_eccentricity": 0.0011627,
        "meta_inclination": 97.6912,
        "meta_ra_of_asc_node": 163.6841,
        "meta_arg_of_pericenter": 141.902,
        "meta_mean_anomaly": 218.3048,
        "meta_ephemeris_type": 0,
        "meta_classification_type": "U",
        "meta_norad_cat_id": 40701,
        "meta_element_set_no": 999,
        "meta_rev_at_epoch": 58253,
        "meta_bstar": 0.0010077897,
        "meta_mean_motion_dot": 0.0003843,
        "meta_mean_motion_ddot": 0,
        "tle_line1": "1 40701U 15030A   25345.59906946  .00038430  00000+0  10078-2 0  9993",
        "tle_line2": "2 40701  97.6912 163.6841 0011627 141.9020 218.3048 15.38499279582537"
      },
      "geometry": {
        "type": "Point",
        "coordinates": [
          -5.675744540862548,
          52.85137826449461
        ]
      }
    },
    {
      "type": "Feature",
      "properties": {
        "norad_id": 40718,
        "name": "CARBONITE 1 (CBNT-1)",
        "group": "resource",
        "lat": -36.570852267786016,
        "lon": -18.689219515473155,
        "alt_km": 618.6151967697087,
        "timestamp": "2025-12-11T22:43:46.928760+00:00",
        "meta_object_name": "CARBONITE 1 (CBNT-1)",
        "meta_object_id": "2015-032D",
        "meta_epoch": "2025-12-11T13:39:24.686208",
        "meta_mean_motion": 14.82735488,
        "meta_eccentricity": 0.0014306,
        "meta_inclination": 97.6405,
        "meta_ra_of_asc_node": 166.665,
        "meta_arg_of_pericenter": 185.6306,
        "meta_mean_anomaly": 174.4749,
        "meta_ephemeris_type": 0,
        "meta_classification_type": "U",
        "meta_norad_cat_id": 40718,
        "meta_element_set_no": 999,
        "meta_rev_at_epoch": 56153,
        "meta_bstar": 0.00050893967,
        "meta_mean_motion_dot": 4.067e-05,
        "meta_mean_motion_ddot": 0,
        "tle_line1": "1 40718U 15032D   25345.56903572  .00004067  00000+0  50894-3 0  9992",
        "tle_line2": "2 40718  97.6405 166.6650 0014306 185.6306 174.4749 14.82735488561532"
      },
      "geometry": {
        "type": "Point",
        "coordinates": [
          -18.689219515473155,
          -36.570852267786016
        ]
      }
    },
    {
      "type": "Feature",
      "properties": {
        "norad_id": 40878,
        "name": "YAOGAN-27",
        "group": "resource",
        "lat": 29.395597190427225,
        "lon": -30.161022548987148,
        "alt_km": 1199.252011395658,
        "timestamp": "2025-12-11T22:43:46.928770+00:00",
        "meta_object_name": "YAOGAN-27",
        "meta_object_id": "2015-040A",
        "meta_epoch": "2025-12-11T15:16:48.759744",
        "meta_mean_motion": 13.16061575,
        "meta_eccentricity": 0.00076365,
        "meta_inclination": 100.1014,
        "meta_ra_of_asc_node": 335.3062,
        "meta_arg_of_pericenter": 289.7335,
        "meta_mean_anomaly": 70.2954,
        "meta_ephemeris_type": 0,
        "meta_classification_type": "U",
        "meta_norad_cat_id": 40878,
        "meta_element_set_no": 999,
        "meta_rev_at_epoch": 49299,
        "meta_bstar": 0.0010752849,
        "meta_mean_motion_dot": 3.66e-06,
        "meta_mean_motion_ddot": 0,
        "tle_line1": "1 40878U 15040A   25345.63667546  .00000366  00000+0  10753-2 0  9991",
        "tle_line2": "2 40878 100.1014 335.3062 0007636 289.7335  70.2954 13.16061575492992"
      },
      "geometry": {
        "type": "Point",
        "coordinates": [
          -30.161022548987148,
          29.395597190427225
        ]
      }
    }
  ]
}